[{"OBJECT_NAME":"PHISAT 2","OBJECT_ID":"2024-149C","EPOCH":"2026-03-09T18:55:12.732384","MEAN_MOTION":15.29548632,"ECCENTRICITY":0.00011753,"INCLINATION":97.3806,"RA_OF_ASC_NODE":148.6498,"ARG_OF_PERICENTER":168.623,"MEAN_ANOMALY":191.5037,"EPHEMERIS_TYPE":0,"CLASSIFICATION_TYPE":"U","NORAD_CAT_ID":60470,"ELEMENT_SET_NO":999,"REV_AT_EPOCH":8679,"BSTAR":0.00031420974,"MEAN_MOTION_DOT":8.925e-5,"MEAN_MOTION_DDOT":0},{"OBJECT_NAME":"STARLINK-34677","OBJECT_ID":"2025-161S","EPOCH":"2026-03-09T22:25:16.499136","MEAN_MOTION":15.30219127,"ECCENTRICITY":0.00026115,"INCLINATION":53.1603,"RA_OF_ASC_NODE":293.3259,"ARG_OF_PERICENTER":44.929,"MEAN_ANOMALY":315.1922,"EPHEMERIS_TYPE":0,"CLASSIFICATION_TYPE":"U","NORAD_CAT_ID":65031,"ELEMENT_SET_NO":999,"REV_AT_EPOCH":3426,"BSTAR":0.0014794379,"MEAN_MOTION_DOT":0.00043744,"MEAN_MOTION_DDOT":0}]
